[
    {
        "Altitude(m)": 607911.0112274574,
        "Argument of Periapsis(deg)": 0.0,
        "Eccentricity": 0.0,
        "Inclination(deg)": 60.0,
        "Latitude(deg)": -14.292956573121842,
        "Longitude(deg)": -6.557321876477568,
        "Mean Anomaly(deg)": -163.6364,
        "RAAN(deg)": 265.0,
        "Satellite Name": "Test1 1178",
        "Satellite Number": 1178,
        "Semi-Major Axis(m)": 6980739.136638005,
        "Time(s)": 0
    },
    {
        "Altitude(m)": 608060.244783836,
        "Argument of Periapsis(deg)": 0.00010418945913296404,
        "Eccentricity": 0.0,
        "Inclination(deg)": 60.0,
        "Latitude(deg)": -14.8266173621379,
        "Longitude(deg)": -6.268711226179235,
        "Mean Anomaly(deg)": -163.01629385453816,
        "RAAN(deg)": 264.99957995086027,
        "Satellite Name": "Test1 1178",
        "Satellite Number": 1178,
        "Semi-Major Axis(m)": 6980739.136638005,
        "Time(s)": 10
    }
]